[{"OBJECT_NAME":"STARLINK-30922","OBJECT_ID":"2023-180N","EPOCH":"2026-03-09T07:06:49.906080","MEAN_MOTION":15.26741506,"ECCENTRICITY":0.00015437,"INCLINATION":43.0054,"RA_OF_ASC_NODE":54.9489,"ARG_OF_PERICENTER":262.4941,"MEAN_ANOMALY":97.5735,"EPHEMERIS_TYPE":0,"CLASSIFICATION_TYPE":"U","NORAD_CAT_ID":58414,"ELEMENT_SET_NO":999,"REV_AT_EPOCH":12756,"BSTAR":3.1710047e-5,"MEAN_MOTION_DOT":5.91e-6,"MEAN_MOTION_DDOT":0},{"OBJECT_NAME":"VSP RF C1","OBJECT_ID":"2024-043AQ","EPOCH":"2026-03-09T21:56:05.358624","MEAN_MOTION":15.29409663,"ECCENTRICITY":0.00093965,"INCLINATION":97.5441,"RA_OF_ASC_NODE":205.1792,"ARG_OF_PERICENTER":219.6172,"MEAN_ANOMALY":140.4382,"EPHEMERIS_TYPE":0,"CLASSIFICATION_TYPE":"U","NORAD_CAT_ID":59136,"ELEMENT_SET_NO":999,"REV_AT_EPOCH":11190,"BSTAR":0.00026222052,"MEAN_MOTION_DOT":7.409e-5,"MEAN_MOTION_DDOT":0}]
